MALLIGYONG-1            
1 58400U 23179A   24037.55285570  .00007931  00000+0  34670-3 0  9994
2 58400  97.4233 286.3269 0016147  14.6707 345.4995 15.22239034 11706
